NORAD_CAT_ID,OBJECT_NAME,OBJECT_TYPE,EPOCH,MEAN_MOTION,ECCENTRICITY,INCLINATION,RA_OF_ASC_NODE,ARG_OF_PERICENTER,MEAN_ANOMALY,BSTAR,MEAN_MOTION_DOT,MEAN_MOTION_DDOT,TLE_LINE0,TLE_LINE1,TLE_LINE2,SEMIMAJOR_AXIS,PERIOD,APOGEE,PERIGEE,DECAYED
53742.0,STARLINK-4637,PAYLOAD,2023-07-03 17:29:58,15.08849065,0.0001041,53.2188,343.2666,84.0092,276.1019,8.5726e-05,1.077e-05,0.0,0 STARLINK-4637,1 53742U 22107AU  23184.72915068  .00001077  00000-0  85726-4 0  9996,2 53742  53.2188 343.2666 0001041  84.0092 276.1019 15.08849065 45875,6917.853,95.437,540.438,538.998,0.0
53742.0,STARLINK-4637,PAYLOAD,2023-07-04 10:59:14,15.08831752,0.000102,53.2192,339.9947,91.1936,268.9173,4.0989e-05,3.65e-06,0.0,0 STARLINK-4637,1 53742U 22107AU  23185.45780367  .00000365  00000-0  40989-4 0  9990,2 53742  53.2192 339.9947 0001020  91.1936 268.9173 15.08831752 45983,6917.906,95.438,540.476,539.065,0.0
53742.0,STARLINK-4637,PAYLOAD,2023-07-04 18:56:09,15.0884069,0.0001043,53.2186,338.5091,88.8707,271.2405,4.9972e-05,5.08e-06,0.0,0 STARLINK-4637,1 53742U 22107AU  23185.78899923  .00000508  00000-0  49972-4 0  9995,2 53742  53.2186 338.5091 0001043  88.8707 271.2405 15.08840690 46038,6917.878,95.438,540.465,539.022,0.0
53742.0,STARLINK-4637,PAYLOAD,2023-07-06 09:05:25,15.08835745,9.9e-05,53.2187,331.373,98.224,261.8864,0.00014095,1.956e-05,0.0,0 STARLINK-4637,1 53742U 22107AU  23187.37876467  .00001956  00000-0  14095-3 0  9995,2 53742  53.2187 331.3730 0000990  98.2240 261.8864 15.08835745 46272,6917.893,95.438,540.443,539.074,0.0
53742.0,STARLINK-4637,PAYLOAD,2023-07-06 18:37:43,15.08845484,0.0001224,53.2186,329.5887,105.8214,254.2913,0.00017484,2.496e-05,0.0,0 STARLINK-4637,1 53742U 22107AU  23187.77619883  .00002496  00000-0  17484-3 0  9991,2 53742  53.2186 329.5887 0001224 105.8214 254.2913 15.08845484 46339,6917.864,95.437,540.575,538.882,0.0
53742.0,STARLINK-4637,PAYLOAD,2023-07-08 02:25:26,15.08833747,3.61e-05,53.2181,323.6414,81.7146,278.3887,-3.1768e-05,-7.93e-06,0.0,0 STARLINK-4637,1 53742U 22107AU  23189.10100308 -.00000793  00000-0 -31768-4 0  9999,2 53742  53.2181 323.6414 0000361  81.7146 278.3887 15.08833747 46530,6917.9,95.438,540.014,539.515,0.0
53742.0,STARLINK-4637,PAYLOAD,2023-07-08 18:19:17,15.08846872,8.5e-05,53.2172,320.6657,89.0055,271.1035,0.00011592,1.558e-05,0.0,0 STARLINK-4637,1 53742U 22107AU  23189.76339948  .00001558  00000-0  11592-3 0  9995,2 53742  53.2172 320.6657 0000850  89.0055 271.1035 15.08846872 46639,6917.859,95.437,540.312,539.136,0.0
53742.0,STARLINK-4637,PAYLOAD,2023-07-09 02:16:13,15.08840403,8.45e-05,53.2172,319.1775,86.7572,273.3516,2.7868e-05,1.56e-06,0.0,0 STARLINK-4637,1 53742U 22107AU  23190.09460257  .00000156  00000-0  27868-4 0  9998,2 53742  53.2172 319.1775 0000845  86.7572 273.3516 15.08840403 46682,6917.879,95.438,540.329,539.16,0.0
53742.0,STARLINK-4637,PAYLOAD,2023-07-09 11:48:33,15.08828968,9.71e-05,53.2165,317.3941,93.2195,266.8908,5.7285e-05,6.24e-06,0.0,0 STARLINK-4637,1 53742U 22107AU  23190.49205054  .00000624  00000-0  57285-4 0  9990,2 53742  53.2165 317.3941 0000971  93.2195 266.8908 15.08828968 46744,6917.914,95.438,540.451,539.107,0.0
53742.0,STARLINK-4637,PAYLOAD,2023-07-09 18:10:05,15.08837504,0.0001009,53.2172,316.2049,89.6734,270.4374,-2.8094e-05,-7.35e-06,0.0,0 STARLINK-4637,1 53742U 22107AU  23190.75700757 -.00000735  00000-0 -28094-4 0  9990,2 53742  53.2172 316.2049 0001009  89.6734 270.4374 15.08837504 46788,6917.888,95.438,540.451,539.055,0.0
53742.0,STARLINK-4637,PAYLOAD,2023-07-10 18:00:51,15.08849849,0.0001036,53.2178,311.7456,83.6486,276.4624,0.00017298,2.467e-05,0.0,0 STARLINK-4637,1 53742U 22107AU  23191.75059822  .00002467  00000-0  17298-3 0  9996,2 53742  53.2178 311.7456 0001036  83.6486 276.4624 15.08849849 46930,6917.85,95.437,540.432,538.999,0.0
53742.0,STARLINK-4637,PAYLOAD,2023-07-11 08:19:20,15.08838031,0.0001274,53.2176,309.076,71.2397,288.8734,0.00018637,2.679e-05,0.0,0 STARLINK-4637,1 53742U 22107AU  23192.34677009  .00002679  00000-0  18637-3 0  9998,2 53742  53.2176 309.0760 0001274  71.2397 288.8734 15.08838031 47025,6917.886,95.438,540.633,538.87,0.0
53742.0,STARLINK-4637,PAYLOAD,2023-07-12 14:31:39,15.08846968,0.0001382,53.2164,303.4188,80.0072,280.1076,3.2114e-05,2.23e-06,0.0,0 STARLINK-4637,1 53742U 22107AU  23193.60532281  .00000223  00000-0  32114-4 0  9990,2 53742  53.2164 303.4188 0001382  80.0072 280.1076 15.08846968 47215,6917.859,95.437,540.68,538.768,0.0
53742.0,STARLINK-4637,PAYLOAD,2023-07-13 12:47:04,15.08834756,0.0001055,53.2173,299.2541,101.9588,258.1523,-9.4958e-06,-4.39e-06,0.0,0 STARLINK-4637,1 53742U 22107AU  23194.53269228 -.00000439  00000-0 -94958-5 0  9997,2 53742  53.2173 299.2541 0001055 101.9588 258.1523 15.08834756 47351,6917.896,95.438,540.491,539.032,0.0
53742.0,STARLINK-4637,PAYLOAD,2023-07-14 11:02:28,15.08846653,0.0001259,53.2175,295.0919,86.284,273.8296,0.00032195,4.841e-05,0.0,0 STARLINK-4637,1 53742U 22107AU  23195.46005112  .00004841  00000-0  32195-3 0  9992,2 53742  53.2175 295.0919 0001259  86.2840 273.8296 15.08846653 47493,6917.86,95.437,540.596,538.854,0.0
53742.0,STARLINK-4637,PAYLOAD,2023-07-15 06:07:05,15.08847354,0.0001028,53.2144,291.5282,93.3038,266.8072,0.00035037,5.294e-05,0.0,0 STARLINK-4637,1 53742U 22107AU  23196.25493008  .00005294  00000-0  35037-3 0  9996,2 53742  53.2144 291.5282 0001028  93.3038 266.8072 15.08847354 47612,6917.858,95.437,540.434,539.012,0.0
53742.0,STARLINK-4637,PAYLOAD,2023-07-15 23:36:20,15.08839404,0.0001503,53.216,288.2563,68.0202,292.095,8.5501e-05,1.073e-05,0.0,0 STARLINK-4637,1 53742U 22107AU  23196.98357535  .00001073  00000-0  85501-4 0  9993,2 53742  53.2160 288.2563 0001503  68.0202 292.0950 15.08839404 47720,6917.882,95.438,540.787,538.707,0.0
53742.0,STARLINK-4637,PAYLOAD,2023-07-17 12:10:12,15.08853265,0.0001222,53.216,281.415,80.9609,279.1521,0.00040578,6.178e-05,0.0,0 STARLINK-4637,1 53742U 22107AU  23198.50709220  .00006178  00000-0  40578-3 0  9990,2 53742  53.2160 281.4150 0001222  80.9609 279.1521 15.08853265 47955,6917.84,95.437,540.55,538.859,0.0
53742.0,STARLINK-4637,PAYLOAD,2023-07-18 10:25:37,15.08841105,0.0001178,53.2153,277.2516,77.3931,282.7193,0.00017852,2.555e-05,0.0,0 STARLINK-4637,1 53742U 22107AU  23199.43445643  .00002555  00000-0  17852-3 0  9993,2 53742  53.2153 277.2516 0001178  77.3931 282.7193 15.08841105 48095,6917.877,95.437,540.557,538.927,0.0
53742.0,STARLINK-4637,PAYLOAD,2023-07-18 16:47:09,15.08848888,0.0001088,53.2168,276.0606,79.6491,280.4624,0.00017789,2.545e-05,0.0,0 STARLINK-4637,1 53742U 22107AU  23199.69941114  .00002545  00000-0  17789-3 0  9993,2 53742  53.2168 276.0606 0001088  79.6491 280.4624 15.08848888 48138,6917.853,95.437,540.471,538.966,0.0
53742.0,STARLINK-4637,PAYLOAD,2023-07-19 10:16:24,15.08836049,0.0001243,53.2163,272.7924,81.0708,279.0424,-0.00011911,-2.183e-05,0.0,0 STARLINK-4637,1 53742U 22107AU  23200.42805776 -.00002183  00000-0 -11911-3 0  9991,2 53742  53.2163 272.7924 0001243  81.0708 279.0424 15.08836049 48240,6917.892,95.438,540.617,538.898,0.0
53742.0,STARLINK-4637,PAYLOAD,2023-07-21 16:19:30,15.08850143,0.0001348,53.2159,262.6807,105.5119,254.6023,7.4087e-05,8.92e-06,0.0,0 STARLINK-4637,1 53742U 22107AU  23202.68021223  .00000892  00000-0  74087-4 0  9995,2 53742  53.2159 262.6807 0001348 105.5119 254.6023 15.08850143 48589,6917.849,95.437,540.647,538.782,0.0
53742.0,STARLINK-4637,PAYLOAD,2023-07-24 03:08:47,15.0883924,0.0001264,53.2153,251.6785,88.2007,271.913,0.0001435,1.997e-05,0.0,0 STARLINK-4637,1 53742U 22107AU  23205.13110204  .00001997  00000-0  14350-3 0  9999,2 53742  53.2153 251.6785 0001264  88.2007 271.9130 15.08839240 49730,6917.883,95.438,540.622,538.873,0.0
53742.0,STARLINK-4637,PAYLOAD,2023-07-25 09:21:06,15.08838227,0.0001304,53.2153,246.0298,74.7755,285.3381,7.1416e-05,8.49e-06,0.0,0 STARLINK-4637,1 53742U 22107AU  23206.38966418  .00000849  00000-0  71416-4 0  9995,2 53742  53.2153 246.0298 0001304  74.7755 285.3381 15.08838227 49924,6917.886,95.438,540.653,538.849,0.0
53742.0,STARLINK-4637,PAYLOAD,2023-07-26 12:22:39,15.08854048,0.0001291,53.2154,240.9728,91.9035,268.2105,-5.0505e-05,-1.092e-05,0.0,0 STARLINK-4637,1 53742U 22107AU  23207.51573526 -.00001092  00000-0 -50505-4 0  9994,2 53742  53.2154 240.9728 0001291  91.9035 268.2105 15.08854048 50096,6917.837,95.437,540.596,538.809,0.0
53742.0,STARLINK-4637,PAYLOAD,2023-07-27 02:41:08,15.08840267,0.0001156,53.2155,238.2963,86.4727,273.6397,0.00010228,1.34e-05,0.0,0 STARLINK-4637,1 53742U 22107AU  23208.11190112  .00001340  00000-0  10228-3 0  9998,2 53742  53.2155 238.2963 0001156  86.4727 273.6397 15.08840267 49409,6917.88,95.438,540.544,538.945,0.0
53742.0,STARLINK-4637,PAYLOAD,2023-07-27 09:02:40,15.08844193,0.0001158,53.2155,237.1068,87.6054,272.5071,0.00011081,1.476e-05,0.0,0 STARLINK-4637,1 53742U 22107AU  23208.37685825  .00001476  00000-0  11081-3 0  9994,2 53742  53.2155 237.1068 0001158  87.6054 272.5071 15.08844193 50222,6917.868,95.437,540.534,538.931,0.0
53742.0,STARLINK-4637,PAYLOAD,2023-07-27 18:34:59,15.08841126,8.33e-05,53.2149,235.3216,82.6798,277.4289,7.3939e-05,8.89e-06,0.0,0 STARLINK-4637,1 53742U 22107AU  23208.77430029  .00000889  00000-0  73939-4 0  9990,2 53742  53.2149 235.3216 0000833  82.6798 277.4289 15.08841126 50283,6917.877,95.437,540.318,539.166,0.0
53742.0,STARLINK-4637,PAYLOAD,2023-07-28 00:56:32,15.08836896,0.0001143,53.2147,234.1368,85.6915,274.4207,5.2919e-05,5.54e-06,0.0,0 STARLINK-4637,1 53742U 22107AU  23209.03926515  .00000554  00000-0  52919-4 0  9994,2 53742  53.2147 234.1368 0001143  85.6915 274.4207 15.08836896 49547,6917.89,95.438,540.546,538.964,0.0
53742.0,STARLINK-4637,PAYLOAD,2023-07-28 12:04:14,15.08833909,0.000107,53.2156,232.0519,89.2646,270.8469,1.1797e-05,-1e-06,0.0,0 STARLINK-4637,1 53742U 22107AU  23209.50294993 -.00000100  00000-0  11797-4 0  9991,2 53742  53.2156 232.0519 0001070  89.2646 270.8469 15.08833909 50399,6917.899,95.438,540.504,539.024,0.0
